     2.100          NAVIGATION                              RINEX VERSION / TYPE
fic2rin                                 11/29/2012 00:13:17 PGM / RUN BY / DATE
                                                            END OF HEADER
16 12 11 28 20  0  0.0 -.250172801316D-03 -.454747350886D-12  .000000000000D+00
     .470000000000D+02 -.117593750000D+03  .360086427616D-08  .155678281508D+01
    -.596046447754D-05  .660537264775D-02  .100806355476D-04  .515379994965D+04
     .331200000000D+06 -.353902578354D-07 -.254835315988D+00  .707805156708D-07
     .983176719200D+00  .196875000000D+03  .235318009482D-01 -.755495755145D-08
    -.900037490174D-10  .100000000000D+01  .171600000000D+04  .000000000000D+00
     .240000000000D+01  .000000000000D+00 -.977888703346D-08  .470000000000D+02
     .324006000000D+06  .400000000000D+01
17 12 11 28 20  0  0.0  .743474811316D-04 -.363797880709D-11  .000000000000D+00
     .120000000000D+03  .110312500000D+02  .453268880468D-08  .641330165038D+00
     .489875674248D-06  .778203725349D-02  .871159136295D-05  .515376309395D+04
     .331200000000D+06 -.540167093277D-07  .783298143032D+00  .763684511185D-07
     .964064399620D+00  .214156250000D+03 -.228506522026D+01 -.797354641593D-08
     .577166898461D-09  .100000000000D+01  .171600000000D+04  .000000000000D+00
     .240000000000D+01  .000000000000D+00 -.107102096081D-07  .120000000000D+03
     .324006000000D+06  .400000000000D+01
18 12 11 28 20  0  0.0  .226844102144D-03  .181898940355D-11  .000000000000D+00
     .380000000000D+02  .200312500000D+02  .502378068920D-08  .211001230977D+01
     .867992639542D-06  .136093486799D-01  .105258077383D-04  .515375337791D+04
     .331200000000D+06 -.108033418655D-06  .284473615685D+01 -.299885869026D-06
     .928723956121D+00  .159968750000D+03 -.213633741674D+01 -.801033366255D-08
    -.442161274935D-09  .100000000000D+01  .171600000000D+04  .000000000000D+00
     .240000000000D+01  .000000000000D+00 -.107102096081D-07  .380000000000D+02
     .324006000000D+06  .400000000000D+01
19 12 11 28 20  0  0.0 -.326298642904D-03 -.341060513165D-11  .000000000000D+00
     .800000000000D+02  .131562500000D+02  .464983654150D-08 -.129749184414D+00
     .769272446632D-06  .869861966930D-02  .822544097900D-05  .515363774300D+04
     .331200000000D+06  .119209289551D-06  .835771823720D+00  .596046447754D-07
     .961314074133D+00  .220937500000D+03  .272776812489D+00 -.807247910830D-08
     .643955394756D-09  .100000000000D+01  .171600000000D+04  .000000000000D+00
     .240000000000D+01  .000000000000D+00 -.144354999065D-07  .800000000000D+02
     .324006000000D+06  .400000000000D+01
20 12 11 28 20  0  0.0  .747684389353D-04  .113686837722D-11  .000000000000D+00
     .980000000000D+02  .240000000000D+02  .502806658201D-08  .263368833281D+01
     .114552676678D-05  .532640854362D-02  .106822699308D-04  .515359408379D+04
     .331200000000D+06  .167638063431D-07  .279116938963D+01 -.126659870148D-06
     .929301339165D+00  .153281250000D+03  .127620976543D+01 -.803426323074D-08
    -.566452166435D-09  .100000000000D+01  .171600000000D+04  .000000000000D+00
     .340000000000D+01  .000000000000D+00 -.791624188423D-08  .980000000000D+02
     .324006000000D+06  .400000000000D+01
21 12 11 28 20  0  0.0 -.265082344413D-03 -.238742359215D-11  .000000000000D+00
     .240000000000D+02 -.165000000000D+02  .558451833189D-08 -.306115407228D+01
    -.103749334812D-05  .194963513641D-01  .471435487270D-05  .515375946045D+04
     .331200000000D+06  .108033418655D-06  .179548805484D+01 -.352039933205D-06
     .930921867650D+00  .273343750000D+03 -.220049295180D+01 -.820998483597D-08
    -.130005415247D-09  .100000000000D+01  .171600000000D+04  .000000000000D+00
     .240000000000D+01  .000000000000D+00 -.111758708954D-07  .240000000000D+02
     .324006000000D+06  .400000000000D+01
23 12 11 28 20  0  0.0  .139351002872D-03 -.386535248253D-11  .000000000000D+00
     .580000000000D+02  .132656250000D+03  .449483008486D-08 -.512362860598D+00
     .678002834320D-05  .813251046930D-02  .566802918911D-05  .515378927422D+04
     .331200000000D+06  .165775418282D-06 -.238324854291D+01  .186264514923D-07
     .958141064798D+00  .268625000000D+03 -.291797528966D+01 -.823355724642D-08
     .147506144223D-09  .100000000000D+01  .171600000000D+04  .000000000000D+00
     .240000000000D+01  .000000000000D+00 -.204890966415D-07  .580000000000D+02
     .324006000000D+06  .400000000000D+01
24 12 11 28 20  0  0.0  .322517007589D-05 -.682121026330D-12  .000000000000D+00
     .540000000000D+02 -.343125000000D+02  .467269463649D-08 -.699976008285D+00
    -.171177089214D-05  .234587583691D-03  .797212123871D-06  .515371924400D+04
     .331200000000D+06 -.745058059692D-08 -.135621379131D+01 -.577419996262D-07
     .959156569864D+00  .365781250000D+03 -.409860161144D+00 -.839213528041D-08
    -.171792870148D-09  .100000000000D+01  .171600000000D+04  .000000000000D+00
     .340000000000D+01  .000000000000D+00  .419095158577D-08  .540000000000D+02
     .324006000000D+06  .400000000000D+01
25 12 11 28 20  0  0.0  .535310246050D-04  .204636307899D-11  .000000000000D+00
     .480000000000D+02 -.108281250000D+03  .388409035938D-08  .277059225017D+01
    -.557117164135D-05  .186105701141D-02  .898167490959D-05  .515363185310D+04
     .331200000000D+06 -.372529029846D-08 -.309297547073D+00 -.242143869400D-07
     .971237764294D+00  .211781250000D+03  .663852401831D+00 -.772996484121D-08
     .428589281035D-11  .100000000000D+01  .171600000000D+04  .000000000000D+00
     .240000000000D+01  .000000000000D+00  .512227416039D-08  .480000000000D+02
     .324006000000D+06  .400000000000D+01
26 12 11 28 20  0  0.0 -.193650368601D-03  .136424205266D-10  .000000000000D+00
     .110000000000D+02  .113468750000D+03  .422767609968D-08 -.662238465256D+00
     .620447099209D-05  .208734432235D-01  .554323196411D-05  .515365930557D+04
     .331200000000D+06 -.193715095520D-06 -.230650834870D+01  .264495611191D-06
     .981263371570D+00  .284750000000D+03  .121226815874D+01 -.833034699239D-08
     .178578867098D-09  .100000000000D+01  .171600000000D+04  .000000000000D+00
     .240000000000D+01  .000000000000D+00 -.605359673500D-08  .110000000000D+02
     .324006000000D+06  .400000000000D+01
27 12 11 28 20  0  0.0 -.209501944482D-03  .329691829393D-11  .000000000000D+00
     .800000000000D+01 -.109968750000D+03  .514521431883D-08  .143499921375D+01
    -.574812293053D-05  .563133275136D-02  .935606658459D-05  .515361338043D+04
     .331200000000D+06 -.707805156708D-07 -.293528855501D+00  .111758708954D-07
     .976116713122D+00  .207750000000D+03  .868015306219D+00 -.775175146299D-08
    -.725030200418D-10  .100000000000D+01  .171600000000D+04  .000000000000D+00
     .240000000000D+01  .630000000000D+02 -.190921127796D-07  .800000000000D+01
     .324006000000D+06  .400000000000D+01
28 12 11 28 20  0  0.0  .209006480873D-03  .363797880709D-11  .000000000000D+00
     .410000000000D+02 -.130593750000D+03  .366693845699D-08  .134475763010D+01
    -.687129795551D-05  .184133065632D-01  .989250838757D-05  .515364537811D+04
     .331200000000D+06 -.327825546265D-06 -.248362610077D+00 -.279396772385D-06
     .981580418102D+00  .205343750000D+03 -.181017671788D+01 -.778818155188D-08
    -.178578867098D-10  .100000000000D+01  .171600000000D+04  .000000000000D+00
     .240000000000D+01  .000000000000D+00 -.107102096081D-07  .410000000000D+02
     .324006000000D+06  .400000000000D+01
29 12 11 28 20  0  0.0  .381914898753D-03  .397903932026D-11  .000000000000D+00
     .550000000000D+02  .150000000000D+02  .441839832974D-08 -.280572729705D+01
     .720843672752D-06  .175649404991D-02  .847689807415D-05  .515374075890D+04
     .331200000000D+06 -.372529029846D-08  .791973285278D+00  .279396772385D-07
     .964645976851D+00  .214406250000D+03 -.109724257039D+01 -.782282585210D-08
     .631812031793D-09  .100000000000D+01  .171600000000D+04  .000000000000D+00
     .240000000000D+01  .000000000000D+00 -.931322574615D-08  .550000000000D+02
     .324006000000D+06  .400000000000D+01
30 12 11 28 20  0  0.0 -.303026754409D-03  .148929757415D-10  .000000000000D+00
     .870000000000D+02 -.118468750000D+03  .427374944739D-08  .519084353284D+00
    -.623241066933D-05  .109529750189D-01  .853277742863D-05  .515375110245D+04
     .331200000000D+06 -.104308128357D-06 -.401840398883D+00 -.111758708954D-06
     .962321325414D+00  .219875000000D+03  .161487206920D+01 -.809926593836D-08
    -.162863926793D-09  .100000000000D+01  .171600000000D+04  .000000000000D+00
     .965000000000D+01  .000000000000D+00 -.465661287308D-08  .870000000000D+02
     .324006000000D+06  .400000000000D+01
31 12 11 28 20  0  0.0  .289357267320D-03  .216004991671D-11  .000000000000D+00
     .720000000000D+02 -.437187500000D+02  .429375028051D-08 -.218301648477D+01
    -.213831663132D-05  .804786162917D-02  .115483999252D-05  .515377266693D+04
     .331200000000D+06 -.745058059692D-07 -.132692962093D+01  .121071934700D-06
     .980576625158D+00  .370187500000D+03 -.844026871484D+00 -.817784063989D-08
    -.175721605224D-09  .100000000000D+01  .171600000000D+04  .000000000000D+00
     .340000000000D+01  .000000000000D+00 -.135041773319D-07  .720000000000D+02
     .324006000000D+06  .400000000000D+01
32 12 11 28 20  0  0.0 -.512108672410D-03 -.341060513165D-11  .000000000000D+00
     .130000000000D+02  .438125000000D+02  .456840457810D-08 -.155308954819D+01
     .215880572796D-05  .117368574720D-01  .114440917969D-04  .515380877876D+04
     .331200000000D+06 -.968575477600D-07  .292717820447D+01 -.281259417534D-06
     .950728189714D+00  .153687500000D+03 -.447395051983D+00 -.799854745732D-08
    -.343585740297D-09  .100000000000D+01  .171600000000D+04  .000000000000D+00
     .240000000000D+01  .000000000000D+00 -.325962901115D-08  .130000000000D+02
     .324006000000D+06  .400000000000D+01
